1 45164U 20008AK  22365.34249437 -.00000090  00000-0 -29455-3 0  9993
2 45164  87.8810 287.4160 0001634  81.2492 278.8820 13.10370946142367
1 45164U 20008AK  22365.80064149 -.00000143  00000-0 -44712-3 0  9991
2 45164  87.8810 287.3247 0001643  81.2186 278.9128 13.10370495142420
1 45164U 20008AK  23001.48786079  .00000042  00000-0  85106-4 0  9995
2 45164  87.8811 287.1878 0001628  81.0150 279.1161 13.10370914142517
1 45164U 20008AK  23001.71693443  .00000090  00000-0  22250-3 0  9996
2 45164  87.8812 287.1422 0001621  80.8658 279.2652 13.10370376142547
1 45164U 20008AK  23002.02236550  .00000123  00000-0  31741-3 0  9995
2 45164  87.8812 287.0813 0001622  80.8809 279.2501 13.10370476143320
1 45164U 20008AK  23002.48051157  .00000316  00000-0  86925-3 0  9991
2 45164  87.8813 286.9900 0001623  80.8170 279.3141 13.10370745142642
1 45164U 20008AK  23003.47316173  .00000511  00000-0  14274-2 0  9997
2 45164  87.8813 286.7923 0001637  80.8379 279.2934 13.10371417142771
1 45164U 20008AK  23003.47316173  .00000511  00000-0  14274-2 0  9997
2 45164  87.8813 286.7923 0001637  80.8379 279.2934 13.10371417143514
1 45164U 20008AK  23004.54216884  .00000571  00000-0  15982-2 0  9997
2 45164  87.8815 286.5793 0001650  81.2370 278.8944 13.10372376142914
1 45164U 20008AK  23004.54216884  .00000571  00000-0  15982-2 0  9997
2 45164  87.8815 286.5793 0001650  81.2370 278.8944 13.10372376143656
1 45164U 20008AK  23005.53481654  .00000672  00000-0  18874-2 0  9991
2 45164  87.8816 286.3816 0001653  80.7689 279.3625 13.10373858143042
1 45164U 20008AK  23006.52746307  .00000707  00000-0  19901-2 0  9991
2 45164  87.8819 286.1839 0001661  80.7301 279.4014 13.10375087143171
1 45164U 20008AK  23006.52746307  .00000707  00000-0  19901-2 0  9991
2 45164  87.8819 286.1839 0001661  80.7301 279.4014 13.10375087143913
1 45164U 20008AK  23007.13832222  .00000658  00000-0  18498-2 0  9996
2 45164  87.8820 286.0623 0001666  80.7007 279.4309 13.10375397143251
1 45164U 20008AK  23007.74918075  .00000569  00000-0  15950-2 0  9995
2 45164  87.8821 285.9406 0001660  80.4970 279.6345 13.10375849143332
1 45164U 20008AK  23007.74918075  .00000569  00000-0  15950-2 0  9995
2 45164  87.8821 285.9406 0001660  80.4970 279.6345 13.10375849144074
1 45164U 20008AK  23008.51275294  .00000479  00000-0  13355-2 0  9997
2 45164  87.8819 285.7885 0001663  80.6774 279.4541 13.10376459143430
1 45164U 20008AK  23009.12360968  .00000468  00000-0  13047-2 0  9994
2 45164  87.8820 285.6668 0001672  80.5057 279.6260 13.10377476143512
1 45164U 20008AK  23009.12360968  .00000468  00000-0  13047-2 0  9994
2 45164  87.8820 285.6668 0001672  80.5057 279.6260 13.10377476144254
1 45164U 20008AK  23010.26896626  .00000290  00000-0  79387-3 0  9999
2 45164  87.8818 285.4387 0001666  80.3818 279.7497 13.10377945144404
1 45164U 20008AK  23010.49803839  .00000117  00000-0  29899-3 0  9999
2 45164  87.8820 285.3931 0001674  80.3955 279.7362 13.10377274143698
1 45164U 20008AK  23011.49068344 -.00000421  00000-0 -12429-2 0  9994
2 45164  87.8817 285.1955 0001672  81.0456 279.0861 13.10375058143820
1 45164U 20008AK  23011.71975570 -.00000490  00000-0 -14410-2 0  9995
2 45164  87.8817 285.1499 0001700  80.9902 279.1417 13.10374397143855
1 45164U 20008AK  23011.71975570 -.00000490  00000-0 -14410-2 0  9995
2 45164  87.8817 285.1499 0001700  80.9902 279.1417 13.10374397144597
1 45164U 20008AK  23012.71240065 -.00000641  00000-0 -18734-2 0  9991
2 45164  87.8817 284.9524 0001710  80.6964 279.4357 13.10373759143988
1 45164U 20008AK  23013.01782951 -.00000672  00000-0 -19624-2 0  9993
2 45164  87.8817 284.8915 0001713  80.7463 279.3858 13.10374197144768
1 45164U 20008AK  23013.24690198 -.00000398  00000-0 -11766-2 0  9993
2 45164  87.8818 284.8458 0001714  80.7037 279.4284 13.10372285144051
1 45164U 20008AK  23014.46862223 -.00000606  00000-0 -17735-2 0  9992
2 45164  87.8817 284.6025 0001720  81.1261 279.0061 13.10371185144955
1 45164U 20008AK  23015.15584018 -.00000630  00000-0 -18413-2 0  9993
2 45164  87.8813 284.4658 0001710  81.4526 278.6795 13.10370879144304
1 45164U 20008AK  23015.76670127 -.00000618  00000-0 -18063-2 0  9994
2 45164  87.8814 284.3439 0001710  81.3990 278.7331 13.10370312144382
1 45164U 20008AK  23015.76670127 -.00000618  00000-0 -18063-2 0  9994
2 45164  87.8814 284.3439 0001710  81.3990 278.7331 13.10370312145125
1 45164U 20008AK  23016.45392065 -.00000563  00000-0 -16488-2 0  9991
2 45164  87.8812 284.2069 0001699  81.1149 279.0170 13.10369540144474
1 45164U 20008AK  23016.75935171 -.00000525  00000-0 -15414-2 0  9991
2 45164  87.8811 284.1462 0001701  81.1108 279.0212 13.10369182144512
1 45164U 20008AK  23017.14114058 -.00000488  00000-0 -14331-2 0  9993
2 45164  87.8810 284.0701 0001678  80.7910 279.3407 13.10368999145307
1 45164U 20008AK  23017.44657158 -.00000422  00000-0 -12445-2 0  9991
2 45164  87.8809 284.0093 0001676  80.7608 279.3709 13.10368944144608
1 45164U 20008AK  23018.28650816 -.00000316  00000-0 -94052-3 0  9995
2 45164  87.8807 283.8420 0001681  81.0258 279.1060 13.10368295144717
1 45164U 20008AK  23018.28650816 -.00000316  00000-0 -94052-3 0  9995
2 45164  87.8807 283.8420 0001681  81.0258 279.1060 13.10368295145459
1 45164U 20008AK  23018.66829771 -.00000254  00000-0 -76277-3 0  9995
2 45164  87.8807 283.7659 0001675  80.9415 279.1902 13.10367978144763
1 45164U 20008AK  23019.43187764 -.00000112  00000-0 -35730-3 0  9992
2 45164  87.8806 283.6139 0001723  80.8803 279.2519 13.10367092144861
1 45164U 20008AK  23019.43187764 -.00000112  00000-0 -35730-3 0  9992
2 45164  87.8806 283.6139 0001723  80.8803 279.2519 13.10367092145604
1 45164U 20008AK  23020.42452996  .00000104  00000-0  26080-3 0  9992
2 45164  87.8806 283.4160 0001680  80.3269 279.8048 13.10367883144991
1 45164U 20008AK  23020.80631838  .00000369  00000-0  10204-2 0  9991
2 45164  87.8808 283.3400 0001703  80.5112 279.6207 13.10368949145781
1 45164U 20008AK  23022.40983531  .00000552  00000-0  15457-2 0  9998
2 45164  87.8808 283.0205 0001712  80.6236 279.5085 13.10368461145994
1 45164U 20008AK  23023.47884406  .00000615  00000-0  17266-2 0  9997
2 45164  87.8807 282.8075 0001702  80.6614 279.4706 13.10369826146136
1 45164U 20008AK  23024.77692340  .00000802  00000-0  22598-2 0  9997
2 45164  87.8805 282.5489 0001746  80.8710 279.2615 13.10371753146305
1 45164U 20008AK  23025.46416001  .00013537  00000-0  38721-1 0  9995
2 45164  87.8808 282.4116 0002424  81.0123 279.1278 13.10309361145656
1 45164U 20008AK  23025.46416001  .00013537  00000-0  38721-1 0  9995
2 45164  87.8808 282.4116 0002424  81.0123 279.1278 13.10309361146398
1 45164U 20008AK  23025.76957132  .00000736  00000-0  20730-2 0  9992
2 45164  87.8806 282.3511 0001721  80.5967 279.5355 13.10372851145699
1 45164U 20008AK  23025.76957132  .00000736  00000-0  20730-2 0  9992
2 45164  87.8806 282.3511 0001721  80.5967 279.5355 13.10372851146432
1 45164U 20008AK  23026.07500180  .00000520  00000-0  14521-2 0  9996
2 45164  87.8808 282.2899 0001706  81.5890 278.5430 13.10372940145735
1 45164U 20008AK  23027.14400478  .00000531  00000-0  14844-2 0  9994
2 45164  87.8807 282.0772 0001691  78.7317 281.4000 13.10373887146612
1 45164U 20008AK  23027.22036178  .00000569  00000-0  15945-2 0  9999
2 45164  87.8807 282.0620 0001689  78.8557 281.2760 13.10374240145881
1 45164U 20008AK  23027.75486330  .00000413  00000-0  11461-2 0  9993
2 45164  87.8807 281.9555 0001685  78.7959 281.3358 13.10374283145956
1 45164U 20008AK  23028.21300661  .00000378  00000-0  10474-2 0  9990
2 45164  87.8806 281.8642 0001686  78.6847 281.4469 13.10374914146010
1 45164U 20008AK  23028.21300661  .00000378  00000-0  10474-2 0  9990
2 45164  87.8806 281.8642 0001686  78.6847 281.4469 13.10374914146751
1 45164U 20008AK  23028.74750766  .00000218  00000-0  58738-3 0  9992
2 45164  87.8805 281.7578 0001682  79.0603 281.0714 13.10374942146084
1 45164U 20008AK  23029.74015194 -.00000017  00000-0 -85212-4 0  9999
2 45164  87.8805 281.5600 0001694  79.0775 281.0543 13.10374945146219
1 45164U 20008AK  23029.74015194 -.00000017  00000-0 -85212-4 0  9999
2 45164  87.8805 281.5600 0001694  79.0775 281.0543 13.10374945146950
1 45164U 20008AK  23030.19829503 -.00000077  00000-0 -25684-3 0  9999
2 45164  87.8805 281.4686 0001699  78.7441 281.3877 13.10375362146276
1 45164U 20008AK  23031.11458232 -.00000298  00000-0 -89066-3 0  9998
2 45164  87.8806 281.2864 0001700  79.5872 280.5446 13.10374984146398
1 45164U 20008AK  23031.11458232 -.00000298  00000-0 -89066-3 0  9998
2 45164  87.8806 281.2864 0001700  79.5872 280.5446 13.10374984147131
1 45164U 20008AK  23031.95451357 -.00000462  00000-0 -13584-2 0  9995
2 45164  87.8803 281.1186 0001725  79.3698 280.7624 13.10373610146500
